{
  "type": "FeatureCollection",
  "features": [
    {
      "type": "Feature",
      "properties": {
        "norad_id": 66857,
        "name": "STARLINK-36083",
        "group": "last-30-days",
        "lat": 6.257018782287289,
        "lon": 93.24661309732693,
        "alt_km": 343.58856592740995,
        "timestamp": "2025-12-18T13:51:48.380660+00:00",
        "meta_object_name": "STARLINK-36083",
        "meta_object_id": "2025-281K",
        "meta_epoch": "2025-12-18T06:00:02.999808",
        "meta_mean_motion": 15.75651346,
        "meta_eccentricity": 0.00014316,
        "meta_inclination": 43.0006,
        "meta_ra_of_asc_node": 88.4785,
        "meta_arg_of_pericenter": 263.6665,
        "meta_mean_anomaly": 45.3672,
        "meta_ephemeris_type": 0,
        "meta_classification_type": "U",
        "meta_norad_cat_id": 66857,
        "meta_element_set_no": 999,
        "meta_rev_at_epoch": 228,
        "meta_bstar": -0.0058019734,
        "meta_mean_motion_dot": -0.00830825,
        "meta_mean_motion_ddot": 0,
        "tle_line1": "1 66857U 25281K   25352.25003472 -.00830825  00000+0 -58020-2 0  9994",
        "tle_line2": "2 66857  43.0006  88.4785 0001431 263.6665  45.3672 15.75651346  2282"
      },
      "geometry": {
        "type": "Point",
        "coordinates": [
          93.24661309732693,
          6.257018782287289
        ]
      }
    },
    {
      "type": "Feature",
      "properties": {
        "norad_id": 66858,
        "name": "STARLINK-35118",
        "group": "last-30-days",
        "lat": 7.5510506746873665,
        "lon": 94.6628007627009,
        "alt_km": 343.54622205203395,
        "timestamp": "2025-12-18T13:51:48.380670+00:00",
        "meta_object_name": "STARLINK-35118",
        "meta_object_id": "2025-281L",
        "meta_epoch": "2025-12-18T06:00:02.999808",
        "meta_mean_motion": 15.7549725,
        "meta_eccentricity": 0.00014287,
        "meta_inclination": 43.0008,
        "meta_ra_of_asc_node": 88.4733,
        "meta_arg_of_pericenter": 261.949,
        "meta_mean_anomaly": 49.1054,
        "meta_ephemeris_type": 0,
        "meta_classification_type": "U",
        "meta_norad_cat_id": 66858,
        "meta_element_set_no": 999,
        "meta_rev_at_epoch": 207,
        "meta_bstar": -0.0045704813,
        "meta_mean_motion_dot": -0.00663197,
        "meta_mean_motion_ddot": 0,
        "tle_line1": "1 66858U 25281L   25352.25003472 -.00663197  00000+0 -45705-2 0  9997",
        "tle_line2": "2 66858  43.0008  88.4733 0001428 261.9490  49.1054 15.75497250  2076"
      },
      "geometry": {
        "type": "Point",
        "coordinates": [
          94.6628007627009,
          7.5510506746873665
        ]
      }
    },
    {
      "type": "Feature",
      "properties": {
        "norad_id": 66859,
        "name": "STARLINK-35646",
        "group": "last-30-days",
        "lat": 8.838300631073729,
        "lon": 96.08527974901423,
        "alt_km": 343.2839989470576,
        "timestamp": "2025-12-18T13:51:48.380682+00:00",
        "meta_object_name": "STARLINK-35646",
        "meta_object_id": "2025-281M",
        "meta_epoch": "2025-12-18T06:00:02.999808",
        "meta_mean_motion": 15.75329179,
        "meta_eccentricity": 0.00013359,
        "meta_inclination": 43.0007,
        "meta_ra_of_asc_node": 88.4682,
        "meta_arg_of_pericenter": 270.5899,
        "meta_mean_anomaly": 42.486,
        "meta_ephemeris_type": 0,
        "meta_classification_type": "U",
        "meta_norad_cat_id": 66859,
        "meta_element_set_no": 999,
        "meta_rev_at_epoch": 228,
        "meta_bstar": -0.0031156387,
        "meta_mean_motion_dot": -0.00459713,
        "meta_mean_motion_ddot": 0,
        "tle_line1": "1 66859U 25281M   25352.25003472 -.00459713  00000+0 -31156-2 0  9990",
        "tle_line2": "2 66859  43.0007  88.4682 0001335 270.5899  42.4860 15.75329179  2283"
      },
      "geometry": {
        "type": "Point",
        "coordinates": [
          96.08527974901423,
          8.838300631073729
        ]
      }
    },
    {
      "type": "Feature",
      "properties": {
        "norad_id": 66860,
        "name": "STARLINK-35987",
        "group": "last-30-days",
        "lat": 15.181439278213857,
        "lon": 103.38462235693127,
        "alt_km": 342.57136286049536,
        "timestamp": "2025-12-18T13:51:48.380693+00:00",
        "meta_object_name": "STARLINK-35987",
        "meta_object_id": "2025-281N",
        "meta_epoch": "2025-12-18T06:00:02.999808",
        "meta_mean_motion": 15.75053012,
        "meta_eccentricity": 0.00013097,
        "meta_inclination": 43.0005,
        "meta_ra_of_asc_node": 88.4434,
        "meta_arg_of_pericenter": 262.1229,
        "meta_mean_anomaly": 60.6728,
        "meta_ephemeris_type": 0,
        "meta_classification_type": "U",
        "meta_norad_cat_id": 66860,
        "meta_element_set_no": 999,
        "meta_rev_at_epoch": 228,
        "meta_bstar": -0.00029779935,
        "meta_mean_motion_dot": -0.00046,
        "meta_mean_motion_ddot": 0,
        "tle_line1": "1 66860U 25281N   25352.25003472 -.00046000  00000+0 -29780-3 0  9994",
        "tle_line2": "2 66860  43.0005  88.4434 0001309 262.1229  60.6728 15.75053012  2288"
      },
      "geometry": {
        "type": "Point",
        "coordinates": [
          103.38462235693127,
          15.181439278213857
        ]
      }
    },
    {
      "type": "Feature",
      "properties": {
        "norad_id": 66861,
        "name": "STARLINK-35991",
        "group": "last-30-days",
        "lat": 11.399324664874696,
        "lon": 98.96602651776526,
        "alt_km": 343.2612899053538,
        "timestamp": "2025-12-18T13:51:48.380703+00:00",
        "meta_object_name": "STARLINK-35991",
        "meta_object_id": "2025-281P",
        "meta_epoch": "2025-12-18T06:00:02.999808",
        "meta_mean_motion": 15.75072264,
        "meta_eccentricity": 0.00017347,
        "meta_inclination": 43.0008,
        "meta_ra_of_asc_node": 88.4584,
        "meta_arg_of_pericenter": 255.7089,
        "meta_mean_anomaly": 61.3304,
        "meta_ephemeris_type": 0,
        "meta_classification_type": "U",
        "meta_norad_cat_id": 66861,
        "meta_element_set_no": 999,
        "meta_rev_at_epoch": 228,
        "meta_bstar": -0.00036694544,
        "meta_mean_motion_dot": -0.0005655,
        "meta_mean_motion_ddot": 0,
        "tle_line1": "1 66861U 25281P   25352.25003472 -.00056550  00000+0 -36695-3 0  9999",
        "tle_line2": "2 66861  43.0008  88.4584 0001734 255.7089  61.3304 15.75072264  2280"
      },
      "geometry": {
        "type": "Point",
        "coordinates": [
          98.96602651776526,
          11.399324664874696
        ]
      }
    },
    {
      "type": "Feature",
      "properties": {
        "norad_id": 66862,
        "name": "STARLINK-35974",
        "group": "last-30-days",
        "lat": 10.121125383987936,
        "lon": 97.51926741121744,
        "alt_km": 343.253676649475,
        "timestamp": "2025-12-18T13:51:48.380714+00:00",
        "meta_object_name": "STARLINK-35974",
        "meta_object_id": "2025-281Q",
        "meta_epoch": "2025-12-18T06:00:02.999808",
        "meta_mean_motion": 15.7512144,
        "meta_eccentricity": 0.0001965,
        "meta_inclination": 43.0009,
        "meta_ra_of_asc_node": 88.4636,
        "meta_arg_of_pericenter": 264.8145,
        "meta_mean_anomaly": 50.2692,
        "meta_ephemeris_type": 0,
        "meta_classification_type": "U",
        "meta_norad_cat_id": 66862,
        "meta_element_set_no": 999,
        "meta_rev_at_epoch": 218,
        "meta_bstar": -0.00071787409,
        "meta_mean_motion_dot": -0.00109729,
        "meta_mean_motion_ddot": 0,
        "tle_line1": "1 66862U 25281Q   25352.25003472 -.00109729  00000+0 -71787-3 0  9998",
        "tle_line2": "2 66862  43.0009  88.4636 0001965 264.8145  50.2692 15.75121440  2187"
      },
      "geometry": {
        "type": "Point",
        "coordinates": [
          97.51926741121744,
          10.121125383987936
        ]
      }
    },
    {
      "type": "Feature",
      "properties": {
        "norad_id": 66863,
        "name": "STARLINK-36134",
        "group": "last-30-days",
        "lat": 12.671454463732386,
        "lon": 100.42757063345914,
        "alt_km": 343.0301158087959,
        "timestamp": "2025-12-18T13:51:48.380724+00:00",
        "meta_object_name": "STARLINK-36134",
        "meta_object_id": "2025-281R",
        "meta_epoch": "2025-12-18T06:00:02.999808",
        "meta_mean_motion": 15.75058183,
        "meta_eccentricity": 0.00014816,
        "meta_inclination": 43.0006,
        "meta_ra_of_asc_node": 88.4536,
        "meta_arg_of_pericenter": 256.4015,
        "meta_mean_anomaly": 62.5699,
        "meta_ephemeris_type": 0,
        "meta_classification_type": "U",
        "meta_norad_cat_id": 66863,
        "meta_element_set_no": 999,
        "meta_rev_at_epoch": 228,
        "meta_bstar": -0.0003138069,
        "meta_mean_motion_dot": -0.00048445,
        "meta_mean_motion_ddot": 0,
        "tle_line1": "1 66863U 25281R   25352.25003472 -.00048445  00000+0 -31381-3 0  9992",
        "tle_line2": "2 66863  43.0006  88.4536 0001481 256.4015  62.5699 15.75058183  2287"
      },
      "geometry": {
        "type": "Point",
        "coordinates": [
          100.42757063345914,
          12.671454463732386
        ]
      }
    }
  ]
}